ONEWEB-0716             
1 55177U 23004AP  25318.52547286 -.00000027  00000+0 -10158-3 0  9990
2 55177  87.9130  48.5584 0001885 106.8588 253.2750 13.17651071139310
ONEWEB-0717             
1 55178U 23004AQ  25318.66046478 -.00000010  00000+0 -58171-4 0  9993
2 55178  87.9143  48.5005 0001055  87.5211 272.6041 13.17651596139387
ONEWEB-0719             
1 55179U 23004AR  25318.29090376  .00000109  00000+0  24637-3 0  9995
2 55179  87.9139  48.5562 0001737 110.4686 249.6632 13.17652544139283
ONEWEB-0530             
1 55796U 23029A   25318.69874811  .00000062  00000+0  11942-3 0  9998
2 55796  87.9183 317.2616 0001324  90.6085 269.5200 13.20771713132837
ONEWEB-0534             
1 55797U 23029B   25318.45885392  .00000076  00000+0  15555-3 0  9998
2 55797  87.9175 317.3105 0001903  93.2644 266.8707 13.20771826132800
ONEWEB-0556             
1 55798U 23029C   25318.69241900 -.00000407  00000+0 -10330-2 0  9991
2 55798  87.9180 317.2629 0001847 118.5213 241.6106 13.20773886132832
ONEWEB-0562             
1 55799U 23029D   25318.75553884 -.00000043  00000+0 -13821-3 0  9991
2 55799  87.9176 317.2336 0001077 111.5823 248.5426 13.20773668132848
ONEWEB-0563             
1 55800U 23029E   25318.74925400 -.00000031  00000+0 -10917-3 0  9990
2 55800  87.9181 317.2611 0002042  96.2931 263.8435 13.20771825132837
